[{"OBJECT_NAME":"STARLINK-4504","OBJECT_ID":"2022-101AE","EPOCH":"2026-03-09T04:57:11.756448","MEAN_MOTION":15.08841062,"ECCENTRICITY":0.00013082,"INCLINATION":53.217,"RA_OF_ASC_NODE":66.2909,"ARG_OF_PERICENTER":84.6203,"MEAN_ANOMALY":275.4939,"EPHEMERIS_TYPE":0,"CLASSIFICATION_TYPE":"U","NORAD_CAT_ID":53555,"ELEMENT_SET_NO":999,"REV_AT_EPOCH":19689,"BSTAR":-4.2484e-8,"MEAN_MOTION_DOT":-2.89e-6,"MEAN_MOTION_DDOT":0},{"OBJECT_NAME":"CZ-6A DEB","OBJECT_ID":"2024-140GC","EPOCH":"2026-03-09T13:34:49.028736","MEAN_MOTION":14.75009559,"ECCENTRICITY":0.0165561,"INCLINATION":88.9161,"RA_OF_ASC_NODE":274.3109,"ARG_OF_PERICENTER":173.9196,"MEAN_ANOMALY":186.409,"EPHEMERIS_TYPE":0,"CLASSIFICATION_TYPE":"U","NORAD_CAT_ID":60801,"ELEMENT_SET_NO":999,"REV_AT_EPOCH":8449,"BSTAR":0.00072752,"MEAN_MOTION_DOT":6.141e-5,"MEAN_MOTION_DDOT":0}]
